SatCatId,ObjectName,LaunchYear,OrbitalPeriod,LaunchMass,StatusCode,Status,UcsData,OrbitClass,LaunchSiteCountry,Owner,UseType,Purpose,LaunchVehicleClass,TLE1,TLE2
49076,ONEWEB-0286,2021,109.72,148.0,+,Active,1,LEO,Kazakhstan,UK,Commercial,Communications,Soyuz,1 49076U 21075B   22125.25001157  .00018217  00000+0  50514-1 0  9998,2 49076  87.9115 289.5558 0001854  99.8949 244.8053 13.12426241 38279
49077,ONEWEB-0287,2021,109.29,148.0,+,Active,1,LEO,Kazakhstan,UK,Commercial,Communications,Soyuz,1 49077U 21075C   22125.25001157 -.00002873  00000+0 -74367-2 0  9995,2 49077  87.9039 304.8580 0001464  95.2117 218.6167 13.17646529 36546
49078,ONEWEB-0288,2021,109.72,148.0,+,Active,1,LEO,Kazakhstan,UK,Commercial,Communications,Soyuz,1 49078U 21075D   22124.91668981  .00025870  00000+0  71699-1 0  9996,2 49078  87.8883 289.7166 0001812  96.4147 179.6923 13.12420156 38861
49079,ONEWEB-0289,2021,109.29,148.0,+,Active,1,LEO,Kazakhstan,UK,Commercial,Communications,Soyuz,1 49079U 21075E   22125.25001157 -.00003938  00000+0 -10182-1 0  9994,2 49079  87.9037 304.8268 0001967  97.0464 128.5817 13.17644793 37118
49080,ONEWEB-0290,2021,109.29,148.0,+,Active,1,LEO,Kazakhstan,UK,Commercial,Communications,Soyuz,1 49080U 21075F   22125.58334491 -.00037178  00000+0 -96140-1 0  9993,2 49080  87.9033 304.7938 0001367  92.9412 331.7395 13.17675770 36588
49081,ONEWEB-0291,2021,109.29,148.0,+,Active,1,LEO,Kazakhstan,UK,Commercial,Communications,Soyuz,1 49081U 21075G   22125.25001157 -.00002805  00000+0 -72591-2 0  9992,2 49081  87.9021 304.8662 0001506  96.2617 239.5774 13.17645776 36545
49082,ONEWEB-0293,2021,109.29,148.0,+,Active,1,LEO,Kazakhstan,UK,Commercial,Communications,Soyuz,1 49082U 21075H   22125.25001157 -.00003559  00000+0 -92035-2 0  9995,2 49082  87.9037 304.8247 0001410  92.3794 162.6805 13.17642607 36562
49083,ONEWEB-0294,2021,109.72,148.0,+,Active,1,LEO,Kazakhstan,UK,Commercial,Communications,Soyuz,1 49083U 21075J   22125.25001157  .00019332  00000+0  53604-1 0  9998,2 49083  87.9108 289.5093 0001285  89.4077 298.7655 13.12425733 38291
49084,ONEWEB-0295,2021,109.29,148.0,+,Active,1,LEO,Kazakhstan,UK,Commercial,Communications,Soyuz,1 49084U 21075K   22125.25001157 -.00003633  00000+0 -93943-2 0  9999,2 49084  87.9025 304.7984 0001335 114.2848 133.4388 13.17645668 36504
49085,ONEWEB-0296,2021,109.72,148.0,+,Active,1,LEO,Kazakhstan,UK,Commercial,Communications,Soyuz,1 49085U 21075L   22125.25001157  .00021990  00000+0  60963-1 0  9999,2 49085  87.9006 289.4921 0001460 135.0680 329.5838 13.12423067 38296
49086,ONEWEB-0297,2021,109.73,148.0,+,Active,1,LEO,Kazakhstan,UK,Commercial,Communications,Soyuz,1 49086U 21075M   22124.91668981  .00026845  00000+0  74468-1 0  9995,2 49086  87.8895 289.6918 0002777  94.9126  94.5514 13.12351722 38850
49087,ONEWEB-0298,2021,109.29,148.0,+,Active,1,LEO,Kazakhstan,UK,Commercial,Communications,Soyuz,1 49087U 21075N   22125.25001157 -.00003726  00000+0 -96337-2 0  9995,2 49087  87.9043 304.8006 0002101 106.1224 134.1997 13.17641105 36565
49088,ONEWEB-0299,2021,109.29,148.0,+,Active,1,LEO,Kazakhstan,UK,Commercial,Communications,Soyuz,1 49088U 21075P   22125.25001157 -.00003757  00000+0 -97137-2 0  9999,2 49088  87.9035 304.7554 0001893 101.9427 131.0776 13.17643370 36522
49089,ONEWEB-0300,2021,109.7,148.0,+,Active,1,LEO,Kazakhstan,UK,Commercial,Communications,Soyuz,1 49089U 21075Q   22125.25001157  .00000013  00000+0  00000+0 0  9990,2 49089  87.8889 289.6142 0001224  87.2915 278.7840 13.12824791 38929
49090,ONEWEB-0301,2021,109.72,148.0,+,Active,1,LEO,Kazakhstan,UK,Commercial,Communications,Soyuz,1 49090U 21075R   22125.25001157  .00020941  00000+0  58057-1 0  9991,2 49090  87.9088 289.4927 0002143  87.7655 344.1486 13.12426382 38286
49091,ONEWEB-0302,2021,109.72,148.0,+,Active,1,LEO,Kazakhstan,UK,Commercial,Communications,Soyuz,1 49091U 21075S   22125.25001157  .00022361  00000+0  61988-1 0  9997,2 49091  87.8958 289.5561 0001608 107.0308  19.3973 13.12425414 38279
49092,ONEWEB-0304,2021,109.29,148.0,+,Active,1,LEO,Kazakhstan,UK,Commercial,Communications,Soyuz,1 49092U 21075T   22125.25001157 -.00002881  00000+0 -74566-2 0  9992,2 49092  87.9034 304.8234 0001847  94.5965 211.8768 13.17645697 36505
49093,ONEWEB-0305,2021,109.29,148.0,+,Active,1,LEO,Kazakhstan,UK,Commercial,Communications,Soyuz,1 49093U 21075U   22125.25001157 -.00002807  00000+0 -72661-2 0  9995,2 49093  87.9039 304.8654 0001847 109.0423 234.1028 13.17647379 36526
49094,ONEWEB-0308,2021,109.72,148.0,+,Active,1,LEO,Kazakhstan,UK,Commercial,Communications,Soyuz,1 49094U 21075V   22125.25001157  .00022543  00000+0  62488-1 0  9998,2 49094  87.9119 289.5281 0001745  96.5272  51.6822 13.12427394 38287
49095,ONEWEB-0309,2021,109.29,148.0,+,Active,1,LEO,Kazakhstan,UK,Commercial,Communications,Soyuz,1 49095U 21075W   22125.25001157 -.00002839  00000+0 -73486-2 0  9998,2 49095  87.9044 304.8619 0001300  80.1576 240.9732 13.17648767 36515
49096,ONEWEB-0310,2021,109.73,148.0,+,Active,1,LEO,Kazakhstan,UK,Commercial,Communications,Soyuz,1 49096U 21075X   22124.91668981  .00026074  00000+0  72398-1 0  9990,2 49096  87.8965 289.7005 0001723 104.6978 216.8849 13.12290319  3318
49097,ONEWEB-0311,2021,109.29,148.0,+,Active,1,LEO,Kazakhstan,UK,Commercial,Communications,Soyuz,1 49097U 21075Y   22125.25001157 -.00003009  00000+0 -77854-2 0  9993,2 49097  87.9042 304.8650 0002031 107.2104 191.9450 13.17643453 36575
49098,ONEWEB-0312,2021,109.29,148.0,+,Active,1,LEO,Kazakhstan,UK,Commercial,Communications,Soyuz,1 49098U 21075Z   22125.25001157 -.00003437  00000+0 -88906-2 0  9999,2 49098  87.9051 304.8119 0001449 102.3417 159.9972 13.17644591 36534
49099,ONEWEB-0313,2021,109.29,148.0,+,Active,1,LEO,Kazakhstan,UK,Commercial,Communications,Soyuz,1 49099U 21075AA  22125.25001157 -.00002816  00000+0 -72889-2 0  9993,2 49099  87.9041 304.8666 0001432 104.2842 224.1934 13.17646491 36541
49100,ONEWEB-0314,2021,109.29,148.0,+,Active,1,LEO,Kazakhstan,UK,Commercial,Communications,Soyuz,1 49100U 21075AB  22125.25001157 -.00002816  00000+0 -72888-2 0  9995,2 49100  87.9048 304.8595 0001499 103.5975 246.9638 13.17646365 36503
49101,ONEWEB-0315,2021,109.73,148.0,+,Active,1,LEO,Kazakhstan,UK,Commercial,Communications,Soyuz,1 49101U 21075AC  22124.91668981  .00027440  00000+0  76158-1 0  9993,2 49101  87.8898 289.7117 0002021  84.8153  17.0459 13.12312811  3309
49102,ONEWEB-0316,2021,98.36,148.0,+,Active,1,LEO,Kazakhstan,UK,Commercial,Communications,Soyuz,1 49102U 21075AD  22124.91668981 -.01104542  00000+0 -22577+0 0  9990,2 49102  87.5809 276.7853 0021129  92.7531 177.5928 14.64080734  3532
49103,ONEWEB-0317,2021,109.72,148.0,+,Active,1,LEO,Kazakhstan,UK,Commercial,Communications,Soyuz,1 49103U 21075AE  22125.25001157  .00084909  00000+0  23410+0 0  9993,2 49103  87.8903 289.6076 0001520 111.9987 145.2709 13.12361702 38911
49104,ONEWEB-0318,2021,98.93,148.0,+,Active,1,LEO,Kazakhstan,UK,Commercial,Communications,Soyuz,1 49104U 21075AF  22124.91668981 -.01406031  00000+0 -34810+0 0  9993,2 49104  87.5832 276.7323 0022200  90.3771 309.2927 14.55628260  3549
49105,ONEWEB-0319,2021,109.29,148.0,+,Active,1,LEO,Kazakhstan,UK,Commercial,Communications,Soyuz,1 49105U 21075AG  22125.25001157 -.00003030  00000+0 -78395-2 0  9998,2 49105  87.9040 304.8262 0002321 114.9159 176.8780 13.17644752 36547
49106,ONEWEB-0323,2021,109.72,148.0,+,Active,1,LEO,Kazakhstan,UK,Commercial,Communications,Soyuz,1 49106U 21075AH  22125.25001157  .00018367  00000+0  50929-1 0  9998,2 49106  87.9116 289.5296 0001860 111.9124 189.0336 13.12429283 38285
49107,ONEWEB-0329,2021,109.29,148.0,+,Active,1,LEO,Kazakhstan,UK,Commercial,Communications,Soyuz,1 49107U 21075AJ  22125.25001157 -.00003238  00000+0 -83776-2 0  9999,2 49107  87.9036 304.8273 0001649 102.4019 174.6621 13.17643911 36529
49108,ONEWEB-0330,2021,109.29,148.0,+,Active,1,LEO,Kazakhstan,UK,Commercial,Communications,Soyuz,1 49108U 21075AK  22125.25001157 -.00003367  00000+0 -87092-2 0  9998,2 49108  87.9039 304.8430 0001665  99.0201 170.7752 13.17646075 36560
49112,RSW-01,2021,107.25,300.0,+,Active,1,LEO,PRC,China,Commercial,Communications,Long March,1 49112U 21076A   22125.17438483  .00000064  00000+0  84924-4 0  9993,2 49112  86.4069 335.2812 0014467 318.9634  41.0421 13.42710400 34047
49113,PAYLOAD B,2021,102.23,-1.0,+,Active,0,LEO,PRC,China,Unknown,Unknown,Unknown,1 49113U 21076B   22125.18696572  .00000221  00000+0  11756-3 0  9997,2 49113  86.4013 324.9200 0018433 231.8676 128.0845 14.08621638 35649
49114,RSW-02,2021,107.25,300.0,+,Active,1,LEO,PRC,China,Commercial,Communications,Long March,1 49114U 21076C   22125.18073442  .00000066  00000+0  88660-4 0  9999,2 49114  86.4068 335.2824 0017874 314.1733  45.7942 13.42710018 34048
49115,TJS-7,2021,1436.14,-1.0,+,Active,1,GEO,PRC,China,Government,Communications,Long March,1 49115U 21077A   22124.84823758 -.00000226  00000+0  00000+0 0  9992,2 49115   0.4141 270.5851 0002004  48.2634 355.7025  1.00268759  2729
49122,GAOFEN 5-02,2021,98.79,4200.0,+,Active,1,LEO,PRC,China,Government,Earth Observation,Long March,1 49122U 21079A   22125.14125216  .00000320  00000+0  80277-4 0  9993,2 49122  98.2526 199.9383 0000366 263.9107  96.2053 14.57699564 34960
49125,CHINASAT 9B,2021,1436.08,5500.0,+,Active,1,GEO,PRC,China,Government,Communications,Long March,1 49125U 21080A   22124.88104781 -.00000308  00000+0  00000+0 0  9990,2 49125   0.0142 203.9316 0001981 203.9984 233.4064  1.00272872  2551
49131,STARLINK-3096,2021,94.68,260.0,+,Active,1,LEO,USA,USA,Commercial,Communications,Falcon,1 49131U 21082B   22124.91668981 -.00559539  00000+0 -26840-1 0  9998,2 49131  69.9999 197.2768 0003147 270.1547 302.3621 15.20983385 36518
49132,STARLINK-3090,2021,96.1,260.0,+,Active,1,LEO,USA,USA,Commercial,Communications,Falcon,1 49132U 21082C   22124.91668981 -.00071121  00000+0 -60078-2 0  9997,2 49132  70.0007 236.3749 0003173 281.7671 187.6544 14.98365453  3607
